[{"OBJECT_NAME":"STARLINK-32361","OBJECT_ID":"2024-207X","EPOCH":"2026-03-09T22:07:41.465280","MEAN_MOTION":15.27598509,"ECCENTRICITY":0.00020521,"INCLINATION":42.9969,"RA_OF_ASC_NODE":280.7526,"ARG_OF_PERICENTER":252.9929,"MEAN_ANOMALY":107.0698,"EPHEMERIS_TYPE":0,"CLASSIFICATION_TYPE":"U","NORAD_CAT_ID":61933,"ELEMENT_SET_NO":999,"REV_AT_EPOCH":7475,"BSTAR":0.0012588947,"MEAN_MOTION_DOT":0.00034563,"MEAN_MOTION_DDOT":0},{"OBJECT_NAME":"FLOCK 4G-36","OBJECT_ID":"2025-009BU","EPOCH":"2026-03-09T16:58:27.533568","MEAN_MOTION":15.27209548,"ECCENTRICITY":0.00034736,"INCLINATION":97.4053,"RA_OF_ASC_NODE":151.0513,"ARG_OF_PERICENTER":324.2456,"MEAN_ANOMALY":35.855,"EPHEMERIS_TYPE":0,"CLASSIFICATION_TYPE":"U","NORAD_CAT_ID":62675,"ELEMENT_SET_NO":999,"REV_AT_EPOCH":6370,"BSTAR":0.00051121743,"MEAN_MOTION_DOT":0.00013573,"MEAN_MOTION_DDOT":0}]
